{
    "links": {
        "self": "http://www.neowsapp.com/rest/v1/neo/3725970?api_key=iIulBulltgU6a56xZRHN4H3l9WmuAYTsLGpBGhQ2"
    },
    "id": "3725970",
    "neo_reference_id": "3725970",
    "name": "(2015 PQ227)",
    "designation": "2015 PQ227",
    "nasa_jpl_url": "http://ssd.jpl.nasa.gov/sbdb.cgi?sstr=3725970",
    "absolute_magnitude_h": 21.5,
    "estimated_diameter": {
        "kilometers": {
            "estimated_diameter_min": 0.1332155667,
            "estimated_diameter_max": 0.2978790628
        },
        "meters": {
            "estimated_diameter_min": 133.2155666981,
            "estimated_diameter_max": 297.8790627982
        },
        "miles": {
            "estimated_diameter_min": 0.0827762899,
            "estimated_diameter_max": 0.1850934111
        },
        "feet": {
            "estimated_diameter_min": 437.0589598459,
            "estimated_diameter_max": 977.2935443908
        }
    },
    "is_potentially_hazardous_asteroid": false,
    "close_approach_data": [
        {
            "close_approach_date": "2015-08-14",
            "close_approach_date_full": "2015-Aug-14 23:49",
            "epoch_date_close_approach": 1439596140000,
            "relative_velocity": {
                "kilometers_per_second": "31.002697994",
                "kilometers_per_hour": "111609.712778494",
                "miles_per_hour": "69349.935142837"
            },
            "miss_distance": {
                "astronomical": "0.2847995401",
                "lunar": "110.7870210989",
                "kilometers": "42605404.575939587",
                "miles": "26473770.7984248206"
            },
            "orbiting_body": "Earth"
        }
    ],
    "orbital_data": {
        "orbit_id": "5",
        "orbit_determination_date": "2017-04-06 08:32:29",
        "first_observation_date": "2015-08-10",
        "last_observation_date": "2015-08-18",
        "data_arc_in_days": 8,
        "observations_used": 27,
        "orbit_uncertainty": "9",
        "minimum_orbit_intersection": ".158367",
        "jupiter_tisserand_invariant": "3.517",
        "epoch_osculation": "2457246.5",
        "eccentricity": ".3396971460277429",
        "semi_major_axis": "1.766211321759907",
        "inclination": "58.61528147860796",
        "ascending_node_longitude": "135.3458278202735",
        "orbital_period": "857.358431923289",
        "perihelion_distance": "1.166234376476179",
        "perihelion_argument": "167.9329343913881",
        "aphelion_distance": "2.366188267043634",
        "perihelion_time": "2457245.190776286831",
        "mean_anomaly": ".5497356988529749",
        "mean_motion": ".4198943949176795",
        "equinox": "J2000",
        "orbit_class": {
            "orbit_class_type": "AMO",
            "orbit_class_description": "Near-Earth asteroid orbits similar to that of 1221 Amor",
            "orbit_class_range": "1.017 AU < q (perihelion) < 1.3 AU"
        }
    },
    "is_sentry_object": false
}